ONEWEB-0232             
1 48781U 21045Q   25292.95669739  .00000132  00000+0  31594-3 0  9994
2 48781  87.8974 307.0987 0001833  94.3081 265.8259 13.15548762213068
ONEWEB-0231             
1 48782U 21045R   25293.01057299  .00000064  00000+0  13694-3 0  9990
2 48782  87.8963 307.1377 0001764 103.2781 256.8547 13.15548646212768
ONEWEB-0234             
1 48783U 21045S   25292.97240167  .00000139  00000+0  33565-3 0  9995
2 48783  87.8971 307.1164 0002624  82.9265 277.2163 13.15549423212897
ONEWEB-0238             
1 48784U 21045T   25292.97265771  .00000163  00000+0  40021-3 0  9996
2 48784  87.8968 307.1111 0002125  87.8389 272.2985 13.15547155212799
ONEWEB-0240             
1 48785U 21045U   25292.99392514 -.00000033  00000+0 -12071-3 0  9997
2 48785  87.8974 307.0942 0002137 100.0695 260.0677 13.15546951212829
ONEWEB-0246             
1 48786U 21045V   25292.98838501 -.00000010  00000+0 -59860-4 0  9991
2 48786  87.8977 307.1085 0001706  96.9874 263.1451 13.15548014212696
ONEWEB-0210             
1 48787U 21045W   25292.96303476  .00000232  00000+0  58096-3 0  9991
2 48787  87.8977 307.1130 0001562 114.5733 245.5560 13.15548709212730
ONEWEB-0214             
1 48788U 21045X   25292.97174550  .00000157  00000+0  38200-3 0  9993
2 48788  87.8975 307.0980 0001468 103.1897 256.9398 13.15547610212703
ONEWEB-0221             
1 48789U 21045Y   25292.97888395  .00000086  00000+0  19368-3 0  9998
2 48789  87.8966 307.1194 0001872 100.7153 259.4189 13.15548962212795
ONEWEB-0213             
1 48790U 21045Z   25292.96778759  .00000199  00000+0  49384-3 0  9997
2 48790  87.8968 307.1308 0001790 101.5111 258.6220 13.15548416212856
ONEWEB-0212             
1 48791U 21045AA  25293.02085752  .00000143  00000+0  34562-3 0  9991
2 48791  87.8975 307.1052 0001921  92.8318 267.3032 13.15547102212857
ONEWEB-0227             
1 48792U 21045AB  25292.94402217  .00000041  00000+0  73583-4 0  9995
2 48792  87.8965 307.1365 0001882  97.5371 262.5974 13.15548146212795
ONEWEB-0226             
1 48793U 21045AC  25293.01374250  .00000095  00000+0  21893-3 0  9995
2 48793  87.8967 307.1305 0001684 104.2068 255.9250 13.15547960212775
ONEWEB-0224             
1 48794U 21045AD  25292.97729015  .00000105  00000+0  24389-3 0  9998
2 48794  87.8968 307.1725 0002778  99.9374 260.2070 13.15550201212690
ONEWEB-0233             
1 48795U 21045AE  25292.98190752  .00000020  00000+0  20279-4 0  9991
2 48795  87.8969 307.1828 0002011 101.9909 258.1447 13.15548457212711
ONEWEB-0190             
1 48796U 21045AF  25292.96937126  .00000122  00000+0  29110-3 0  9999
2 48796  87.8967 307.1478 0001970 117.2627 242.8705 13.15548832212782
ONEWEB-0236             
1 48797U 21045AG  25292.98679939  .00000029  00000+0  44091-4 0  9999
2 48797  87.8967 307.1553 0001916  89.3264 270.8086 13.15548333212670
ONEWEB-0248             
1 48798U 21045AH  25292.99946287 -.00001006  00000+0 -27067-2 0  9994
2 48798  87.8974 307.1110 0002317 104.5604 255.5784 13.15553640212832
ONEWEB-0225             
1 48799U 21045AJ  25293.02166300  .00000159  00000+0  38717-3 0  9991
2 48799  87.8968 307.1350 0001959 112.3452 247.7886 13.15548180212841
ONEWEB-0215             
1 48800U 21045AK  25292.99154384 -.00000021  00000+0 -89428-4 0  9994
2 48800  87.8978 307.0958 0002170 112.0214 248.1147 13.15550170212710
ONEWEB-0216             
1 48801U 21045AL  25293.00105271 -.00000030  00000+0 -11476-3 0  9996
2 48801  87.8965 307.1309 0001639  96.4051 263.7266 13.15550053212727
ONEWEB-0239             
1 48802U 21045AM  25292.92975886  .00000006  00000+0 -17287-4 0  9993
2 48802  87.8967 307.1599 0002441 109.2669 250.8725 13.15547845212756
FENGYUN 4B              
1 48808U 21047A   25293.00159551 -.00000329  00000+0  00000+0 0  9992
2 48808   0.1649 280.4949 0010623  76.9474 136.4732  1.00274962 16177
SXM-8                   
1 48838U 21049A   25292.82124134 -.00000205  00000+0  00000+0 0  9998
2 48838   0.0104  43.4108 0004220   2.7004 192.9265  1.00271217 16180
NAVSTAR 81 (USA 319)    
1 48859U 21054A   25289.21780060 -.00000094  00000+0  00000+0 0  9998
2 48859  55.2755 342.2645 0024072 230.1379 138.7905  2.00556500 31865
YAOGAN-30 10A           
1 48860U 21055A   25292.97117775  .00006534  00000+0  50454-3 0  9991
2 48860  34.9944 174.6625 0002903 148.1842 211.9042 15.00920977237049
YAOGAN-30 10B           
1 48861U 21055B   25293.01553315  .00006449  00000+0  49754-3 0  9998
2 48861  34.9940 174.0213 0003273 158.0690 202.0159 15.00956445237044
YAOGAN-30 10C           
1 48863U 21055D   25292.98173348  .00006468  00000+0  49874-3 0  9993
2 48863  34.9949 173.8766 0004482 236.6086 123.4193 15.00971376236751
TIANQI-14               
1 48864U 21055E   25292.95738531  .00013184  00000+0  80088-3 0  9997
2 48864  34.9980 123.6148 0006451 339.4705  20.5746 15.09699544237342
COSMOS 2550             
1 48865U 21056A   25291.82127949 -.00000179  00000+0  37945-6 0  9997
2 48865  67.1395 110.1098 0008424 269.4029  90.6160 15.33831764241701
BRIK-II                 
1 48876U 21058F   25292.85687288  .00312935  47947-4  74838-3 0  9992
2 48876  60.6498 341.0999 0019106  35.9553 324.2850 15.95911001241238
STARLINK-3004           
1 48880U 21059B   25292.91907423 -.00001017  00000+0 -74572-4 0  9999
2 48880  97.6604  56.4394 0002076 218.7665 141.3411 15.01256201237687
STARLINK-3005           
1 48881U 21059C   25292.91241229 -.00000496  00000+0 -34013-4 0  9991
2 48881  97.6614  56.3825 0002723 223.8081 136.2928 15.01259804237683
TYVAK-0173              
1 48892U 21059P   25292.92058739  .00005848  00000+0  76692-3 0  9998
2 48892  96.0047  64.1600 0010848 120.2098 240.0195 14.80513490232675
TUBIN                   
1 48900U 21059X   25292.95502166  .00158775  00000+0  90830-3 0  9997
2 48900  97.6724 114.4060 0001734 102.6965 257.4495 15.78398623240776
MANDRAKE 2 ABLE         
1 48907U 21059AE  25292.96075993  .00028858  00000+0  63495-3 0  9993
2 48907  97.6987 101.4872 0005882 147.4448 212.7163 15.43923985239920
MANDRAKE 2 BAKER        
1 48908U 21059AF  25292.98171192  .00033354  00000+0  67160-3 0  9994
2 48908  97.6972 103.0845 0004994 131.7635 228.4042 15.46510696240016
PACE-1                  
1 48909U 21059AG  25292.97949270  .00045526  00000+0  72685-3 0  9996
2 48909  97.6847 104.5905 0004375 112.2566 247.9150 15.53060357240233
YAM-3                   
1 48915U 21059AN  25292.94596515  .00022236  00000+0  53757-3 0  9992
2 48915  97.6940 100.5174 0006721 135.9576 224.2206 15.41145551239895
ICEYE-X13               
1 48916U 21059AP  25292.90731720  .00233497  00000+0  11869-2 0  9998
2 48916  97.6508 107.6109 0001869 232.9633 127.1463 15.80822130240416
ICEYE-X11               
1 48918U 21059AR  25292.95506745  .00061511  00000+0  94484-3 0  9993
2 48918  97.6626 104.2834 0007870 144.8814 215.2959 15.54035471240253
FARADAY_PHOENIX         
1 48924U 21059AX  25292.95247800  .00033884  00000+0  63278-3 0  9993
2 48924  97.6919 106.2323 0008464 121.0367 239.1714 15.48661982240215
HAWK-3B                 
1 48931U 21059BE  25292.99271872  .00036919  00000+0  62548-3 0  9992
2 48931  97.6718 105.4411 0007709 127.7044 232.4907 15.51420840240406
HAWK-3C                 
1 48948U 21059BX  25292.99230336  .00036833  00000+0  62547-3 0  9994
2 48948  97.6899 110.6254 0007862 128.3389 231.8570 15.51354926240406
DEMO8 (TENZING)         
1 48951U 21059CA  25292.94200364  .00027139  00000+0  58664-3 0  9995
2 48951  97.7006 104.9743 0009069 140.1836 220.0079 15.44436170240093
ARTHUR-1                
1 48953U 21059CC  25292.88962144  .00143231  00000+0  90862-3 0  9999
2 48953  97.6658 118.8150 0003722  85.5816 274.5874 15.76089540241080
ASTROCAST-0201          
1 48954U 21059CD  25292.92119109  .00109526  00000+0  92219-3 0  9997
2 48954  97.6511 111.8239 0006649 206.2541 153.8384 15.69477194240732
ASTROCAST-0203          
1 48955U 21059CE  25292.94743060  .00124323  00000+0  10374-2 0  9992
2 48955  97.6525 111.3755 0004195 189.6387 170.4795 15.69666630240738
HAWK-3A                 
1 48957U 21059CG  25292.99228166  .00037177  00000+0  62996-3 0  9992
2 48957  97.6819 108.0530 0007655 126.9341 233.2613 15.51414849240403
SHERPA-FX2 & TAGSAT-2   
1 48958U 21059CH  25292.93107992  .00025953  00000+0  54015-3 0  9992
2 48958  97.6893 105.5661 0009163 130.9917 229.2126 15.45561828240185
ASTROCAST-0205          
1 48960U 21059CK  25292.98021480  .00403546  00000+0  27736-2 0  9994
2 48960  97.6480 111.7564 0000474 299.0378  61.0837 15.73497957240751
NAPA-2                  
1 48963U 21059CN  25292.96418328  .00051305  00000+0  80703-3 0  9992
2 48963  97.6862 103.6452 0005668 120.8265 239.3546 15.53438522240129
SPARTAN                 
1 48964U 21059CP  25292.96605614  .00048905  00000+0  76393-3 0  9991
2 48964  97.6861 106.8097 0003538 108.4543 251.7094 15.53654135240355
ONEWEB-0249             
1 48967U 21060A   25292.97770320 -.00000048  00000+0 -16011-3 0  9993
2 48967  87.8977 276.6325 0001924  90.8874 269.2478 13.16594591208007
ONEWEB-0250             
1 48968U 21060B   25292.94123274  .00000076  00000+0  14228-3 0  9998
2 48968  87.8975 275.1822 0002939  89.1960 270.9513 13.25815737208384
ONEWEB-0252             
1 48970U 21060D   25292.93335770  .00000093  00000+0  21032-3 0  9996
2 48970  87.8976 276.6347 0001601  89.7366 270.3948 13.16597473208040
ONEWEB-0253             
1 48971U 21060E   25292.99827564  .00000006  00000+0 -19169-4 0  9994
2 48971  87.8978 276.6255 0001877  93.9469 266.1877 13.16595552207989
ONEWEB-0254             
1 48972U 21060F   25292.93177490  .00000151  00000+0  36242-3 0  9995
2 48972  87.8982 276.6273 0002122  97.0947 263.0425 13.16598059207974
ONEWEB-0255             
1 48973U 21060G   25292.96979102  .00000056  00000+0  11188-3 0  9995
2 48973  87.8970 276.6416 0001977  94.3865 265.7492 13.16595006208059
